CSS (TIANHE-1)
1 48274U 21035A 22114.58258462 .00027571 00000-0 33065-3 0 9998
2 48274 41.4718 184.8686 0011989 208.3328 305.0048 15.60210539 56392
